<?xml version="1.0" encoding="UTF-8"?>
<gpx version="1.1" creator="Route Notebook" xmlns="http://www.topografix.com/GPX/1/1">
  <metadata><name>Barcelona day 1</name></metadata>
  <wpt lat="41.3852926" lon="2.1753521"><name>Hotel: Itaca Hostel</name><time>2026-09-13T23:00:00.000Z</time></wpt>
  <wpt lat="41.3862282" lon="2.1800081"><name>1. forn de pa vilamala</name><time>2026-09-13T23:00:00.000Z</time></wpt>
  <wpt lat="41.3856036" lon="2.1800221"><name>2. Bar del Pla</name><time>2026-09-13T23:00:00.000Z</time></wpt>
  <trk><name>Barcelona day 1 — walking route</name><trkseg>
      <trkpt lat="41.3852926" lon="2.1753521"></trkpt>
      <trkpt lat="41.3852926" lon="2.1753521"></trkpt>
      <trkpt lat="41.385325" lon="2.175383"></trkpt>
      <trkpt lat="41.385232" lon="2.175557"></trkpt>
      <trkpt lat="41.385327" lon="2.175741"></trkpt>
      <trkpt lat="41.385374" lon="2.175832"></trkpt>
      <trkpt lat="41.385248" lon="2.175887"></trkpt>
      <trkpt lat="41.385099" lon="2.175952"></trkpt>
      <trkpt lat="41.385055" lon="2.175971"></trkpt>
      <trkpt lat="41.384963" lon="2.176103"></trkpt>
      <trkpt lat="41.385302" lon="2.176524"></trkpt>
      <trkpt lat="41.385381" lon="2.176681"></trkpt>
      <trkpt lat="41.385405" lon="2.176737"></trkpt>
      <trkpt lat="41.385432" lon="2.176772"></trkpt>
      <trkpt lat="41.385491" lon="2.176691"></trkpt>
      <trkpt lat="41.385529" lon="2.17674"></trkpt>
      <trkpt lat="41.385537" lon="2.17675"></trkpt>
      <trkpt lat="41.385549" lon="2.176766"></trkpt>
      <trkpt lat="41.38562" lon="2.176858"></trkpt>
      <trkpt lat="41.385692" lon="2.17695"></trkpt>
      <trkpt lat="41.385793" lon="2.177079"></trkpt>
      <trkpt lat="41.385854" lon="2.177156"></trkpt>
      <trkpt lat="41.386151" lon="2.177565"></trkpt>
      <trkpt lat="41.386237" lon="2.177684"></trkpt>
      <trkpt lat="41.386284" lon="2.177748"></trkpt>
      <trkpt lat="41.386418" lon="2.177909"></trkpt>
      <trkpt lat="41.386674" lon="2.178236"></trkpt>
      <trkpt lat="41.386719" lon="2.178292"></trkpt>
      <trkpt lat="41.386699" lon="2.178335"></trkpt>
      <trkpt lat="41.38669" lon="2.178353"></trkpt>
      <trkpt lat="41.386675" lon="2.178377"></trkpt>
      <trkpt lat="41.386507" lon="2.178641"></trkpt>
      <trkpt lat="41.386212" lon="2.179169"></trkpt>
      <trkpt lat="41.386195" lon="2.179199"></trkpt>
      <trkpt lat="41.38638" lon="2.17935"></trkpt>
      <trkpt lat="41.386282" lon="2.179565"></trkpt>
      <trkpt lat="41.386237" lon="2.179719"></trkpt>
      <trkpt lat="41.386162" lon="2.180031"></trkpt>
      <trkpt lat="41.38622" lon="2.180051"></trkpt>
      <trkpt lat="41.3862282" lon="2.1800081"></trkpt>
      <trkpt lat="41.3862282" lon="2.1800081"></trkpt>
      <trkpt lat="41.38622" lon="2.180051"></trkpt>
      <trkpt lat="41.386162" lon="2.180031"></trkpt>
      <trkpt lat="41.385911" lon="2.179909"></trkpt>
      <trkpt lat="41.385798" lon="2.179841"></trkpt>
      <trkpt lat="41.385695" lon="2.180018"></trkpt>
      <trkpt lat="41.385675" lon="2.180031"></trkpt>
      <trkpt lat="41.385639" lon="2.180054"></trkpt>
      <trkpt lat="41.3856036" lon="2.1800221"></trkpt>
    </trkseg></trk>
</gpx>